NOAA 15                 
1 25338U 98030A   19088.57995971  .00000020  00000-0  27205-4 0  9991
2 25338  98.7542 109.9634 0011513 116.6987 243.5373 14.25899685 85433
NOAA 18                 
1 28654U 05018A   19088.59574137  .00000037  00000-0  45015-4 0  9995
2 28654  99.1071 134.3081 0014889  49.2323 311.0137 14.12412098713972
METOP-A                 
1 29499U 06044A   19088.61073413 -.00000022  00000-0  96483-5 0  9998
2 29499  98.5850 144.0624 0002117  98.7721  28.9483 14.21545123645362
NOAA 19                 
1 33591U 09005A   19088.57382039  .00000028  00000-0  40665-4 0  9993
2 33591  99.1759  77.7530 0013050 244.3930 115.5893 14.12341364522196
METOP-B                 
1 38771U 12049A   19088.59075510 -.00000011  00000-0  15011-4 0  9995
2 38771  98.7132 149.0139 0001479 142.7619 346.2901 14.21483975338683
SARAL                   
1 39086U 13009A   19088.60685205 -.00000002  00000-0  15639-4 0  9998
2 39086  98.5417 276.0504 0002096 111.3755 248.7652 14.32034309318191
METOP-C                 
1 43689U 18087A   19088.54197542 -.00000044  00000-0  00000-0 0  9996
2 43689  98.7145 149.2636 0002144 169.6770 190.4458 14.21481586 20243
